{"type": "FeatureCollection", "features": [ {"type": "Feature", "properties": {"norad_id": 34031, "name": "COSMOS 2251 DEB", "group": "cosmos-2251-debris", "lat": -63.826946550707916, "lon": 112.43971749342327, "alt_km": 686.4316927947411, "timestamp": "2025-12-06T05:40:09.638969+00:00", "meta": {"OBJECT_NAME": "COSMOS 2251 DEB", "OBJECT_ID": "1993-036HS", "EPOCH": "2025-12-04T19:43:57.354240", "MEAN_MOTION": 14.59538624, "ECCENTRICITY": 0.00229198, "INCLINATION": 74.0115, "RA_OF_ASC_NODE": 150.8275, "ARG_OF_PERICENTER": 271.4019, "MEAN_ANOMALY": 152.6882, "EPHEMERIS_TYPE": 0, "CLASSIFICATION_TYPE": "U", "NORAD_CAT_ID": 34031, "ELEMENT_SET_NO": 999, "REV_AT_EPOCH": 88450, "BSTAR": 0.0028080122, "MEAN_MOTION_DOT": 0.00013386, "MEAN_MOTION_DDOT": 0}, "tle": {"line1": "1 34031U 93036HS  25338.82219160  .00013386  00000+0  28080-2 0  9992", "line2": "2 34031  74.0115 150.8275 0022919 271.4019 152.6882 14.59538624884500"}}, "geometry": {"type": "Point", "coordinates": [112.43971749342327, -63.826946550707916]}}, {"type": "Feature", "properties": {"norad_id": 34035, "name": "COSMOS 2251 DEB", "group": "cosmos-2251-debris", "lat": -73.39059921893138, "lon": -71.91931824351097, "alt_km": 726.3599502025327, "timestamp": "2025-12-06T05:40:09.638979+00:00", "meta": {"OBJECT_NAME": "COSMOS 2251 DEB", "OBJECT_ID": "1993-036HW", "EPOCH": "2025-12-05T05:48:12.765024", "MEAN_MOTION": 14.51798286, "ECCENTRICITY": 0.00442059, "INCLINATION": 74.0656, "RA_OF_ASC_NODE": 3.2384, "ARG_OF_PERICENTER": 6.5433, "MEAN_ANOMALY": 113.5248, "EPHEMERIS_TYPE": 0, "CLASSIFICATION_TYPE": "U", "NORAD_CAT_ID": 34035, "ELEMENT_SET_NO": 999, "REV_AT_EPOCH": 87857, "BSTAR": 0.0027718868, "MEAN_MOTION_DOT": 0.00011283, "MEAN_MOTION_DDOT": 0}, "tle": {"line1": "1 34035U 93036HW  25339.24181441  .00011283  00000+0  27719-2 0  9995", "line2": "2 34035  74.0656   3.2384 0044205   6.5433 113.5248 14.51798286878571"}}, "geometry": {"type": "Point", "coordinates": [-71.91931824351097, -73.39059921893138]}}, {"type": "Feature", "properties": {"norad_id": 34036, "name": "COSMOS 2251 DEB", "group": "cosmos-2251-debris", "lat": -69.5528849590349, "lon": 32.617824860780075, "alt_km": 586.6694406399192, "timestamp": "2025-12-06T05:40:09.638990+00:00", "meta": {"OBJECT_NAME": "COSMOS 2251 DEB", "OBJECT_ID": "1993-036HX", "EPOCH": "2025-12-04T13:57:18.415296", "MEAN_MOTION": 14.93967594, "ECCENTRICITY": 0.0014479, "INCLINATION": 74.0193, "RA_OF_ASC_NODE": 165.7197, "ARG_OF_PERICENTER": 199.9535, "MEAN_ANOMALY": 160.1085, "EPHEMERIS_TYPE": 0, "CLASSIFICATION_TYPE": "U", "NORAD_CAT_ID": 34036, "ELEMENT_SET_NO": 999, "REV_AT_EPOCH": 88448, "BSTAR": 0.0080934, "MEAN_MOTION_DOT": 0.00087457, "MEAN_MOTION_DDOT": 0}, "tle": {"line1": "1 34036U 93036HX  25338.58146314  .00087457  00000+0  80934-2 0  9996", "line2": "2 34036  74.0193 165.7197 0014479 199.9535 160.1085 14.93967594884484"}}, "geometry": {"type": "Point", "coordinates": [32.617824860780075, -69.5528849590349]}}, {"type": "Feature", "properties": {"norad_id": 34037, "name": "COSMOS 2251 DEB", "group": "cosmos-2251-debris", "lat": -72.31316433999062, "lon": -1.3745800769541523, "alt_km": 819.0645400817639, "timestamp": "2025-12-06T05:40:09.639000+00:00", "meta": {"OBJECT_NAME": "COSMOS 2251 DEB", "OBJECT_ID": "1993-036HY", "EPOCH": "2025-12-05T06:37:32.016864", "MEAN_MOTION": 14.34632975, "ECCENTRICITY": 0.00523125, "INCLINATION": 74.053, "RA_OF_ASC_NODE": 64.1023, "ARG_OF_PERICENTER": 116.3856, "MEAN_ANOMALY": 244.268, "EPHEMERIS_TYPE": 0, "CLASSIFICATION_TYPE": "U", "NORAD_CAT_ID": 34037, "ELEMENT_SET_NO": 999, "REV_AT_EPOCH": 87610, "BSTAR": 0.0010527032, "MEAN_MOTION_DOT": 2.998e-05, "MEAN_MOTION_DDOT": 0}, "tle": {"line1": "1 34037U 93036HY  25339.27606501  .00002998  00000+0  10527-2 0  9991", "line2": "2 34037  74.0530  64.1023 0052312 116.3856 244.2680 14.34632975876109"}}, "geometry": {"type": "Point", "coordinates": [-1.3745800769541523, -72.31316433999062]}}, {"type": "Feature", "properties": {"norad_id": 34040, "name": "COSMOS 2251 DEB", "group": "cosmos-2251-debris", "lat": -73.38793333996328, "lon": 1.9174218881223226, "alt_km": 1120.3547578618245, "timestamp": "2025-12-06T05:40:09.639034+00:00", "meta": {"OBJECT_NAME": "COSMOS 2251 DEB", "OBJECT_ID": "1993-036JB", "EPOCH": "2025-12-05T07:16:14.902464", "MEAN_MOTION": 13.68362924, "ECCENTRICITY": 0.03428484, "INCLINATION": 73.9557, "RA_OF_ASC_NODE": 78.1508, "ARG_OF_PERICENTER": 33.0642, "MEAN_ANOMALY": 329.1403, "EPHEMERIS_TYPE": 0, "CLASSIFICATION_TYPE": "U", "NORAD_CAT_ID": 34040, "ELEMENT_SET_NO": 999, "REV_AT_EPOCH": 83498, "BSTAR": 0.00056636085, "MEAN_MOTION_DOT": 7.08e-06, "MEAN_MOTION_DDOT": 0}, "tle": {"line1": "1 34040U 93036JB  25339.30295026  .00000708  00000+0  56636-3 0  9994", "line2": "2 34040  73.9557  78.1508 0342848  33.0642 329.1403 13.68362924834983"}}, "geometry": {"type": "Point", "coordinates": [1.9174218881223226, -73.38793333996328]}}, {"type": "Feature", "properties": {"norad_id": 34045, "name": "COSMOS 2251 DEB", "group": "cosmos-2251-debris", "lat": -23.489357275744197, "lon": -44.41213942675468, "alt_km": 777.814058165126, "timestamp": "2025-12-06T05:40:09.639046+00:00", "meta": {"OBJECT_NAME": "COSMOS 2251 DEB", "OBJECT_ID": "1993-036JG", "EPOCH": "2025-12-05T06:50:02.087232", "MEAN_MOTION": 14.34062262, "ECCENTRICITY": 0.00253967, "INCLINATION": 74.0386, "RA_OF_ASC_NODE": 324.4731, "ARG_OF_PERICENTER": 50.2114, "MEAN_ANOMALY": 55.5386, "EPHEMERIS_TYPE": 0, "CLASSIFICATION_TYPE": "U", "NORAD_CAT_ID": 34045, "ELEMENT_SET_NO": 999, "REV_AT_EPOCH": 87926, "BSTAR": 0.00017106891, "MEAN_MOTION_DOT": 4.54e-06, "MEAN_MOTION_DDOT": 0}, "tle": {"line1": "1 34045U 93036JG  25339.28474638  .00000454  00000+0  17107-3 0  9992", "line2": "2 34045  74.0386 324.4731 0025396  50.2114  55.5386 14.34062262879262"}}, "geometry": {"type": "Point", "coordinates": [-44.41213942675468, -23.489357275744197]}}, {"type": "Feature", "properties": {"norad_id": 34046, "name": "COSMOS 2251 DEB", "group": "cosmos-2251-debris", "lat": 33.0656775253285, "lon": 33.35461872507257, "alt_km": 719.4663718092024, "timestamp": "2025-12-06T05:40:09.639056+00:00", "meta": {"OBJECT_NAME": "COSMOS 2251 DEB", "OBJECT_ID": "1993-036JH", "EPOCH": "2025-12-05T04:54:11.329056", "MEAN_MOTION": 14.46378457, "ECCENTRICITY": 0.00747539, "INCLINATION": 74.0401, "RA_OF_ASC_NODE": 24.5425, "ARG_OF_PERICENTER": 110.2015, "MEAN_ANOMALY": 314.2404, "EPHEMERIS_TYPE": 0, "CLASSIFICATION_TYPE": "U", "NORAD_CAT_ID": 34046, "ELEMENT_SET_NO": 999, "REV_AT_EPOCH": 87717, "BSTAR": 0.0022542457, "MEAN_MOTION_DOT": 8.362e-05, "MEAN_MOTION_DDOT": 0}, "tle": {"line1": "1 34046U 93036JH  25339.20429779  .00008362  00000+0  22542-2 0  9995", "line2": "2 34046  74.0401  24.5425 0074753 110.2015 314.2404 14.46378457877170"}}, "geometry": {"type": "Point", "coordinates": [33.35461872507257, 33.0656775253285]}}, {"type": "Feature", "properties": {"norad_id": 34050, "name": "COSMOS 2251 DEB", "group": "cosmos-2251-debris", "lat": 4.5158964918568225, "lon": 22.499597122202488, "alt_km": 885.0857266466055, "timestamp": "2025-12-06T05:40:09.639067+00:00", "meta": {"OBJECT_NAME": "COSMOS 2251 DEB", "OBJECT_ID": "1993-036JM", "EPOCH": "2025-12-05T04:06:53.165952", "MEAN_MOTION": 13.96162694, "ECCENTRICITY": 0.0214624, "INCLINATION": 74.0887, "RA_OF_ASC_NODE": 23.0343, "ARG_OF_PERICENTER": 89.2887, "MEAN_ANOMALY": 328.2767, "EPHEMERIS_TYPE": 0, "CLASSIFICATION_TYPE": "U", "NORAD_CAT_ID": 34050, "ELEMENT_SET_NO": 999, "REV_AT_EPOCH": 85326, "BSTAR": 0.00096858571, "MEAN_MOTION_DOT": 1.594e-05, "MEAN_MOTION_DDOT": 0}, "tle": {"line1": "1 34050U 93036JM  25339.17144868  .00001594  00000+0  96859-3 0  9992", "line2": "2 34050  74.0887  23.0343 0214624  89.2887 328.2767 13.96162694853260"}}, "geometry": {"type": "Point", "coordinates": [22.499597122202488, 4.5158964918568225]}}, {"type": "Feature", "properties": {"norad_id": 34053, "name": "COSMOS 2251 DEB", "group": "cosmos-2251-debris", "lat": -3.706781710349897, "lon": -108.42516577608397, "alt_km": 853.437156042517, "timestamp": "2025-12-06T05:40:09.639077+00:00", "meta": {"OBJECT_NAME": "COSMOS 2251 DEB", "OBJECT_ID": "1993-036JQ", "EPOCH": "2025-12-05T04:46:26.497920", "MEAN_MOTION": 13.49142459, "ECCENTRICITY": 0.04217783, "INCLINATION": 73.8444, "RA_OF_ASC_NODE": 254.3218, "ARG_OF_PERICENTER": 44.1358, "MEAN_ANOMALY": 319.2598, "EPHEMERIS_TYPE": 0, "CLASSIFICATION_TYPE": "U", "NORAD_CAT_ID": 34053, "ELEMENT_SET_NO": 999, "REV_AT_EPOCH": 82582, "BSTAR": 0.0013306551, "MEAN_MOTION_DOT": 1.428e-05, "MEAN_MOTION_DDOT": 0}, "tle": {"line1": "1 34053U 93036JQ  25339.19891780  .00001428  00000+0  13307-2 0  9991", "line2": "2 34053  73.8444 254.3218 0421778  44.1358 319.2598 13.49142459825820"}}, "geometry": {"type": "Point", "coordinates": [-108.42516577608397, -3.706781710349897]}}, {"type": "Feature", "properties": {"norad_id": 34056, "name": "COSMOS 2251 DEB", "group": "cosmos-2251-debris", "lat": -53.47800087667764, "lon": 65.30580325767957, "alt_km": 917.2122283869576, "timestamp": "2025-12-06T05:40:09.639088+00:00", "meta": {"OBJECT_NAME": "COSMOS 2251 DEB", "OBJECT_ID": "1993-036JT", "EPOCH": "2025-12-05T06:21:58.205664", "MEAN_MOTION": 14.20501983, "ECCENTRICITY": 0.0124619, "INCLINATION": 74.0601, "RA_OF_ASC_NODE": 89.7417, "ARG_OF_PERICENTER": 139.5014, "MEAN_ANOMALY": 240.1356, "EPHEMERIS_TYPE": 0, "CLASSIFICATION_TYPE": "U", "NORAD_CAT_ID": 34056, "ELEMENT_SET_NO": 999, "REV_AT_EPOCH": 86305, "BSTAR": 0.0025028337, "MEAN_MOTION_DOT": 5.791e-05, "MEAN_MOTION_DDOT": 0}, "tle": {"line1": "1 34056U 93036JT  25339.26525701  .00005791  00000+0  25028-2 0  9999", "line2": "2 34056  74.0601  89.7417 0124619 139.5014 240.1356 14.20501983863056"}}, "geometry": {"type": "Point", "coordinates": [65.30580325767957, -53.47800087667764]}}]}